ATLAS CENTAUR 2         
1 00694U 63047A   25363.97650485  .00002821  00000+0  33258-3 0  9998
2 00694  30.3533 225.1714 0548623 186.0270 173.3506 14.11836125121766
THOR AGENA D R/B        
1 00733U 64002A   25364.93396909  .00000430  00000+0  17038-3 0  9991
2 00733  99.1218   9.5365 0033862  98.4279 262.0745 14.33971639228446
SL-3 R/B                
1 00877U 64053B   25364.84536914  .00000517  00000+0  12468-3 0  9996
2 00877  65.0757 173.0599 0075465 314.3292  45.1637 14.61291155256733
SL-8 R/B                
1 02802U 67045B   25364.78640173  .00000747  00000+0  21423-3 0  9992
2 02802  74.0116 116.7651 0063387 141.5608 219.0091 14.45558149 79062
SL-8 R/B                
1 03230U 68040B   25364.75015057  .00006140  00000+0  45963-3 0  9996
2 03230  74.0327  94.4987 0026344 293.2425  66.5989 15.02671976 79654
OAO 2                   
1 03597U 68110A   25364.93234203  .00000491  00000+0  13768-3 0  9997
2 03597  34.9942 289.0995 0005411 359.0205   1.0474 14.47257002  9135
ISIS 1                  
1 03669U 69009A   25364.94003498  .00000564  00000+0  40449-3 0  9993
2 03669  88.4500 162.8058 1707268 227.9190 116.3773 11.30365829340768
SERT 2                  
1 04327U 70009A   25364.84771076  .00000040  00000+0  11149-3 0  9994
2 04327  99.2674 306.7396 0004808 351.0402  68.2761 13.58720553770546
SL-3 R/B                
1 05118U 71028B   25364.88667667  .00052504  00000+0  75433-3 0  9997
2 05118  81.2373 136.6500 0018733 175.7541 184.3872 15.55669627977956
ASTEX 1                 
1 05560U 71089A   25364.84644280  .00001063  00000+0  27093-3 0  9990
2 05560  92.7153 129.4788 0014147 323.8556  36.1692 14.50668015852326
SL-8 R/B                
1 05730U 71119B   25364.93947528  .00015343  00000+0  79483-3 0  9990
2 05730  73.8893 304.0638 0557784 284.6750  69.3224 14.36194933645618
OAO 3 (COPERNICUS)      
1 06153U 72065A   25364.40484631  .00000767  00000+0  16206-3 0  9992
2 06153  35.0072 332.0374 0007059 309.7514 188.2192 14.59924803836065
