CCSDS_OMM_VERS = 2.0
CREATION_DATE  = 
ORIGINATOR     = 

OBJECT_NAME    = ATLAS CENTAUR 2
OBJECT_ID      = 1963-047A
CENTER_NAME    = EARTH
REF_FRAME      = TEME
TIME_SYSTEM    = UTC
MEAN_ELEMENT_THEORY = SGP/SGP4

EPOCH          = 2025-12-29T23:26:10.019040
MEAN_MOTION    = 14.11836125
ECCENTRICITY   = .05486231
INCLINATION    = 30.3533
RA_OF_ASC_NODE = 225.1714
ARG_OF_PERICENTER = 186.0270
MEAN_ANOMALY   = 173.3506

EPHEMERIS_TYPE = 0
CLASSIFICATION_TYPE = U
NORAD_CAT_ID   = 694
ELEMENT_SET_NO = 999
REV_AT_EPOCH   = 12176
BSTAR          = .33258488E-3
MEAN_MOTION_DOT = .2821E-4
MEAN_MOTION_DDOT = 0

CCSDS_OMM_VERS = 2.0
CREATION_DATE  = 
ORIGINATOR     = 

OBJECT_NAME    = THOR AGENA D R/B
OBJECT_ID      = 1964-002A
CENTER_NAME    = EARTH
REF_FRAME      = TEME
TIME_SYSTEM    = UTC
MEAN_ELEMENT_THEORY = SGP/SGP4

EPOCH          = 2025-12-30T22:24:54.929376
MEAN_MOTION    = 14.33971639
ECCENTRICITY   = .0033862
INCLINATION    = 99.1218
RA_OF_ASC_NODE = 9.5365
ARG_OF_PERICENTER = 98.4279
MEAN_ANOMALY   = 262.0745

EPHEMERIS_TYPE = 0
CLASSIFICATION_TYPE = U
NORAD_CAT_ID   = 733
ELEMENT_SET_NO = 999
REV_AT_EPOCH   = 22844
BSTAR          = .17037972E-3
MEAN_MOTION_DOT = .43E-5
MEAN_MOTION_DDOT = 0

CCSDS_OMM_VERS = 2.0
CREATION_DATE  = 
ORIGINATOR     = 

OBJECT_NAME    = SL-3 R/B
OBJECT_ID      = 1964-053B
CENTER_NAME    = EARTH
REF_FRAME      = TEME
TIME_SYSTEM    = UTC
MEAN_ELEMENT_THEORY = SGP/SGP4

EPOCH          = 2025-12-30T20:17:19.893696
MEAN_MOTION    = 14.61291155
ECCENTRICITY   = .00754659
INCLINATION    = 65.0757
RA_OF_ASC_NODE = 173.0599
ARG_OF_PERICENTER = 314.3292
MEAN_ANOMALY   = 45.1637

EPHEMERIS_TYPE = 0
CLASSIFICATION_TYPE = U
NORAD_CAT_ID   = 877
ELEMENT_SET_NO = 999
REV_AT_EPOCH   = 25673
BSTAR          = .12468099E-3
MEAN_MOTION_DOT = .517E-5
MEAN_MOTION_DDOT = 0

CCSDS_OMM_VERS = 2.0
CREATION_DATE  = 
ORIGINATOR     = 

OBJECT_NAME    = SL-8 R/B
OBJECT_ID      = 1967-045B
CENTER_NAME    = EARTH
REF_FRAME      = TEME
TIME_SYSTEM    = UTC
MEAN_ELEMENT_THEORY = SGP/SGP4

EPOCH          = 2025-12-30T18:52:25.109472
MEAN_MOTION    = 14.45558149
ECCENTRICITY   = .00633876
INCLINATION    = 74.0116
RA_OF_ASC_NODE = 116.7651
ARG_OF_PERICENTER = 141.5608
MEAN_ANOMALY   = 219.0091

EPHEMERIS_TYPE = 0
CLASSIFICATION_TYPE = U
NORAD_CAT_ID   = 2802
ELEMENT_SET_NO = 999
REV_AT_EPOCH   = 7906
BSTAR          = .2142347E-3
MEAN_MOTION_DOT = .747E-5
MEAN_MOTION_DDOT = 0

CCSDS_OMM_VERS = 2.0
CREATION_DATE  = 
ORIGINATOR     = 

OBJECT_NAME    = SL-8 R/B
OBJECT_ID      = 1968-040B
CENTER_NAME    = EARTH
REF_FRAME      = TEME
TIME_SYSTEM    = UTC
MEAN_ELEMENT_THEORY = SGP/SGP4

EPOCH          = 2025-12-30T18:00:13.009248
MEAN_MOTION    = 15.02671976
ECCENTRICITY   = .00263443
INCLINATION    = 74.0327
RA_OF_ASC_NODE = 94.4987
ARG_OF_PERICENTER = 293.2425
MEAN_ANOMALY   = 66.5989

EPHEMERIS_TYPE = 0
CLASSIFICATION_TYPE = U
NORAD_CAT_ID   = 3230
ELEMENT_SET_NO = 999
REV_AT_EPOCH   = 7965
BSTAR          = .45963392E-3
MEAN_MOTION_DOT = .614E-4
MEAN_MOTION_DDOT = 0

CCSDS_OMM_VERS = 2.0
CREATION_DATE  = 
ORIGINATOR     = 

OBJECT_NAME    = OAO 2
OBJECT_ID      = 1968-110A
CENTER_NAME    = EARTH
REF_FRAME      = TEME
TIME_SYSTEM    = UTC
MEAN_ELEMENT_THEORY = SGP/SGP4

EPOCH          = 2025-12-30T22:22:34.351392
MEAN_MOTION    = 14.47257002
ECCENTRICITY   = .00054118
INCLINATION    = 34.9942
RA_OF_ASC_NODE = 289.0995
ARG_OF_PERICENTER = 359.0205
MEAN_ANOMALY   = 1.0474

EPHEMERIS_TYPE = 0
CLASSIFICATION_TYPE = U
NORAD_CAT_ID   = 3597
ELEMENT_SET_NO = 999
REV_AT_EPOCH   = 913
BSTAR          = .13767728E-3
MEAN_MOTION_DOT = .491E-5
MEAN_MOTION_DDOT = 0

CCSDS_OMM_VERS = 2.0
CREATION_DATE  = 
ORIGINATOR     = 

OBJECT_NAME    = ISIS 1
OBJECT_ID      = 1969-009A
CENTER_NAME    = EARTH
REF_FRAME      = TEME
TIME_SYSTEM    = UTC
MEAN_ELEMENT_THEORY = SGP/SGP4

EPOCH          = 2025-12-30T22:33:39.022272
MEAN_MOTION    = 11.30365829
ECCENTRICITY   = .17072684
INCLINATION    = 88.4500
RA_OF_ASC_NODE = 162.8058
ARG_OF_PERICENTER = 227.9190
MEAN_ANOMALY   = 116.3773

EPHEMERIS_TYPE = 0
CLASSIFICATION_TYPE = U
NORAD_CAT_ID   = 3669
ELEMENT_SET_NO = 999
REV_AT_EPOCH   = 34076
BSTAR          = .4044861E-3
MEAN_MOTION_DOT = .564E-5
MEAN_MOTION_DDOT = 0

CCSDS_OMM_VERS = 2.0
CREATION_DATE  = 
ORIGINATOR     = 

OBJECT_NAME    = SERT 2
OBJECT_ID      = 1970-009A
CENTER_NAME    = EARTH
REF_FRAME      = TEME
TIME_SYSTEM    = UTC
MEAN_ELEMENT_THEORY = SGP/SGP4

EPOCH          = 2025-12-30T20:20:42.209664
MEAN_MOTION    = 13.58720553
ECCENTRICITY   = .0004808
INCLINATION    = 99.2674
RA_OF_ASC_NODE = 306.7396
ARG_OF_PERICENTER = 351.0402
MEAN_ANOMALY   = 68.2761

EPHEMERIS_TYPE = 0
CLASSIFICATION_TYPE = U
NORAD_CAT_ID   = 4327
ELEMENT_SET_NO = 999
REV_AT_EPOCH   = 77054
BSTAR          = .11149237E-3
MEAN_MOTION_DOT = .4E-6
MEAN_MOTION_DDOT = 0

CCSDS_OMM_VERS = 2.0
CREATION_DATE  = 
ORIGINATOR     = 

OBJECT_NAME    = SL-3 R/B
OBJECT_ID      = 1971-028B
CENTER_NAME    = EARTH
REF_FRAME      = TEME
TIME_SYSTEM    = UTC
MEAN_ELEMENT_THEORY = SGP/SGP4

EPOCH          = 2025-12-30T21:16:48.864288
MEAN_MOTION    = 15.55669627
ECCENTRICITY   = .0018733
INCLINATION    = 81.2373
RA_OF_ASC_NODE = 136.6500
ARG_OF_PERICENTER = 175.7541
MEAN_ANOMALY   = 184.3872

EPHEMERIS_TYPE = 0
CLASSIFICATION_TYPE = U
NORAD_CAT_ID   = 5118
ELEMENT_SET_NO = 999
REV_AT_EPOCH   = 97795
BSTAR          = .75432573E-3
MEAN_MOTION_DOT = .52504E-3
MEAN_MOTION_DDOT = 0

CCSDS_OMM_VERS = 2.0
CREATION_DATE  = 
ORIGINATOR     = 

OBJECT_NAME    = ASTEX 1
OBJECT_ID      = 1971-089A
CENTER_NAME    = EARTH
REF_FRAME      = TEME
TIME_SYSTEM    = UTC
MEAN_ELEMENT_THEORY = SGP/SGP4

EPOCH          = 2025-12-30T20:18:52.657920
MEAN_MOTION    = 14.50668015
ECCENTRICITY   = .00141475
INCLINATION    = 92.7153
RA_OF_ASC_NODE = 129.4788
ARG_OF_PERICENTER = 323.8556
MEAN_ANOMALY   = 36.1692

EPHEMERIS_TYPE = 0
CLASSIFICATION_TYPE = U
NORAD_CAT_ID   = 5560
ELEMENT_SET_NO = 999
REV_AT_EPOCH   = 85232
BSTAR          = .27093316E-3
MEAN_MOTION_DOT = .1063E-4
MEAN_MOTION_DDOT = 0

CCSDS_OMM_VERS = 2.0
CREATION_DATE  = 
ORIGINATOR     = 

OBJECT_NAME    = SL-8 R/B
OBJECT_ID      = 1971-119B
CENTER_NAME    = EARTH
REF_FRAME      = TEME
TIME_SYSTEM    = UTC
MEAN_ELEMENT_THEORY = SGP/SGP4

EPOCH          = 2025-12-30T22:32:50.664192
MEAN_MOTION    = 14.36194933
ECCENTRICITY   = .05577846
INCLINATION    = 73.8893
RA_OF_ASC_NODE = 304.0638
ARG_OF_PERICENTER = 284.6750
MEAN_ANOMALY   = 69.3224

EPHEMERIS_TYPE = 0
CLASSIFICATION_TYPE = U
NORAD_CAT_ID   = 5730
ELEMENT_SET_NO = 999
REV_AT_EPOCH   = 64561
BSTAR          = .79483133E-3
MEAN_MOTION_DOT = .15343E-3
MEAN_MOTION_DDOT = 0

CCSDS_OMM_VERS = 2.0
CREATION_DATE  = 
ORIGINATOR     = 

OBJECT_NAME    = OAO 3 (COPERNICUS)
OBJECT_ID      = 1972-065A
CENTER_NAME    = EARTH
REF_FRAME      = TEME
TIME_SYSTEM    = UTC
MEAN_ELEMENT_THEORY = SGP/SGP4

EPOCH          = 2025-12-30T09:42:58.721184
MEAN_MOTION    = 14.59924803
ECCENTRICITY   = .00070596
INCLINATION    = 35.0072
RA_OF_ASC_NODE = 332.0374
ARG_OF_PERICENTER = 309.7514
MEAN_ANOMALY   = 188.2192

EPHEMERIS_TYPE = 0
CLASSIFICATION_TYPE = U
NORAD_CAT_ID   = 6153
ELEMENT_SET_NO = 999
REV_AT_EPOCH   = 83606
BSTAR          = .16206245E-3
MEAN_MOTION_DOT = .767E-5
MEAN_MOTION_DDOT = 0

